{"type": "FeatureCollection", "features": [ {"type": "Feature", "properties": {"norad_id": 66924, "name": "CZ-8A R/B", "group": "last-30-days", "lat": -17.997352926768915, "lon": -44.283689864335166, "alt_km": 806.5522836198361, "timestamp": "2025-12-11T20:41:13.849768+00:00", "meta": {"OBJECT_NAME": "CZ-8A R/B", "OBJECT_ID": "2025-285K", "EPOCH": "2025-12-11T14:43:17.970816", "MEAN_MOTION": 14.30501085, "ECCENTRICITY": 0.01193158, "INCLINATION": 50.0062, "RA_OF_ASC_NODE": 120.949, "ARG_OF_PERICENTER": 102.7702, "MEAN_ANOMALY": 258.6578, "EPHEMERIS_TYPE": 0, "CLASSIFICATION_TYPE": "U", "NORAD_CAT_ID": 66924, "ELEMENT_SET_NO": 999, "REV_AT_EPOCH": 76, "BSTAR": 9.4970033e-05, "MEAN_MOTION_DOT": 1.02e-06, "MEAN_MOTION_DDOT": 0}, "tle": {"line1": "1 66924U 25285K   25345.61340244  .00000102  00000+0  94970-4 0  9997", "line2": "2 66924  50.0062 120.9490 0119315 102.7702 258.6578 14.30501085   767"}}, "geometry": {"type": "Point", "coordinates": [-44.283689864335166, -17.997352926768915]}}, {"type": "Feature", "properties": {"norad_id": 66953, "name": "HULIANWANG DIGUI-114", "group": "last-30-days", "lat": -10.9662299878035, "lon": 167.1575566179247, "alt_km": 1001.3779361829556, "timestamp": "2025-12-11T20:41:13.849780+00:00", "meta": {"OBJECT_NAME": "HULIANWANG DIGUI-114", "OBJECT_ID": "2025-287A", "EPOCH": "2025-12-10T06:55:20.076384", "MEAN_MOTION": 13.69073793, "ECCENTRICITY": 0.00082441, "INCLINATION": 86.4956, "RA_OF_ASC_NODE": 347.0512, "ARG_OF_PERICENTER": 213.3003, "MEAN_ANOMALY": 146.7638, "EPHEMERIS_TYPE": 0, "CLASSIFICATION_TYPE": "U", "NORAD_CAT_ID": 66953, "ELEMENT_SET_NO": 999, "REV_AT_EPOCH": 19, "BSTAR": 9.649594e-06, "MEAN_MOTION_DOT": 2.5e-07, "MEAN_MOTION_DDOT": 0}, "tle": {"line1": "1 66953U 25287A   25344.28842681  .00000025  00000+0  96496-5 0  9995", "line2": "2 66953  86.4956 347.0512 0008244 213.3003 146.7638 13.69073793   194"}}, "geometry": {"type": "Point", "coordinates": [167.1575566179247, -10.9662299878035]}}, {"type": "Feature", "properties": {"norad_id": 66954, "name": "HULIANWANG DIGUI-115", "group": "last-30-days", "lat": -11.960076453430117, "lon": 167.22256014011188, "alt_km": 1001.1216754828356, "timestamp": "2025-12-11T20:41:13.849790+00:00", "meta": {"OBJECT_NAME": "HULIANWANG DIGUI-115", "OBJECT_ID": "2025-287B", "EPOCH": "2025-12-10T10:25:40.434528", "MEAN_MOTION": 13.69168852, "ECCENTRICITY": 0.00081957, "INCLINATION": 86.4972, "RA_OF_ASC_NODE": 346.9997, "ARG_OF_PERICENTER": 212.0231, "MEAN_ANOMALY": 148.0431, "EPHEMERIS_TYPE": 0, "CLASSIFICATION_TYPE": "U", "NORAD_CAT_ID": 66954, "ELEMENT_SET_NO": 999, "REV_AT_EPOCH": 21, "BSTAR": 1.1007839e-05, "MEAN_MOTION_DOT": 2.6e-07, "MEAN_MOTION_DDOT": 0}, "tle": {"line1": "1 66954U 25287B   25344.43449577  .00000026  00000+0  11008-4 0  9996", "line2": "2 66954  86.4972 346.9997 0008195 212.0231 148.0431 13.69168852   212"}}, "geometry": {"type": "Point", "coordinates": [167.22256014011188, -11.960076453430117]}}, {"type": "Feature", "properties": {"norad_id": 66955, "name": "HULIANWANG DIGUI-116", "group": "last-30-days", "lat": -13.29311416101329, "lon": 167.29842156731604, "alt_km": 1001.0625235105535, "timestamp": "2025-12-11T20:41:13.849800+00:00", "meta": {"OBJECT_NAME": "HULIANWANG DIGUI-116", "OBJECT_ID": "2025-287C", "EPOCH": "2025-12-09T09:52:18.926688", "MEAN_MOTION": 13.69296672, "ECCENTRICITY": 0.00076324, "INCLINATION": 86.4914, "RA_OF_ASC_NODE": 347.3632, "ARG_OF_PERICENTER": 209.8722, "MEAN_ANOMALY": 150.2003, "EPHEMERIS_TYPE": 0, "CLASSIFICATION_TYPE": "U", "NORAD_CAT_ID": 66955, "ELEMENT_SET_NO": 999, "REV_AT_EPOCH": 7, "BSTAR": 3.470494e-06, "MEAN_MOTION_DOT": 2e-07, "MEAN_MOTION_DDOT": 0}, "tle": {"line1": "1 66955U 25287C   25343.41133017  .00000020  00000+0  34705-5 0  9997", "line2": "2 66955  86.4914 347.3632 0007632 209.8722 150.2003 13.69296672    70"}}, "geometry": {"type": "Point", "coordinates": [167.29842156731604, -13.29311416101329]}}, {"type": "Feature", "properties": {"norad_id": 66956, "name": "HULIANWANG DIGUI-117", "group": "last-30-days", "lat": -14.387339648592198, "lon": 167.3790779400842, "alt_km": 1001.1465001773813, "timestamp": "2025-12-11T20:41:13.849812+00:00", "meta": {"OBJECT_NAME": "HULIANWANG DIGUI-117", "OBJECT_ID": "2025-287D", "EPOCH": "2025-12-10T08:40:06.191328", "MEAN_MOTION": 13.69398761, "ECCENTRICITY": 0.00070713, "INCLINATION": 86.4971, "RA_OF_ASC_NODE": 347.0263, "ARG_OF_PERICENTER": 199.7388, "MEAN_ANOMALY": 160.3499, "EPHEMERIS_TYPE": 0, "CLASSIFICATION_TYPE": "U", "NORAD_CAT_ID": 66956, "ELEMENT_SET_NO": 999, "REV_AT_EPOCH": 20, "BSTAR": 1.0798013e-05, "MEAN_MOTION_DOT": 2.6e-07, "MEAN_MOTION_DDOT": 0}, "tle": {"line1": "1 66956U 25287D   25344.36118277  .00000026  00000+0  10798-4 0  9995", "line2": "2 66956  86.4971 347.0263 0007071 199.7388 160.3499 13.69398761   201"}}, "geometry": {"type": "Point", "coordinates": [167.3790779400842, -14.387339648592198]}}, {"type": "Feature", "properties": {"norad_id": 66957, "name": "HULIANWANG DIGUI-118", "group": "last-30-days", "lat": -15.528917884339142, "lon": 167.45171818826543, "alt_km": 1000.9973039097968, "timestamp": "2025-12-11T20:41:13.849822+00:00", "meta": {"OBJECT_NAME": "HULIANWANG DIGUI-118", "OBJECT_ID": "2025-287E", "EPOCH": "2025-12-10T08:39:56.683872", "MEAN_MOTION": 13.69509074, "ECCENTRICITY": 0.00068996, "INCLINATION": 86.4942, "RA_OF_ASC_NODE": 347.0238, "ARG_OF_PERICENTER": 197.517, "MEAN_ANOMALY": 162.5753, "EPHEMERIS_TYPE": 0, "CLASSIFICATION_TYPE": "U", "NORAD_CAT_ID": 66957, "ELEMENT_SET_NO": 999, "REV_AT_EPOCH": 20, "BSTAR": -0.00019874691, "MEAN_MOTION_DOT": -1.56e-06, "MEAN_MOTION_DDOT": 0}, "tle": {"line1": "1 66957U 25287E   25344.36107273 -.00000156  00000+0 -19875-3 0  9990", "line2": "2 66957  86.4942 347.0238 0006899 197.5170 162.5753 13.69509074   202"}}, "geometry": {"type": "Point", "coordinates": [167.45171818826543, -15.528917884339142]}}, {"type": "Feature", "properties": {"norad_id": 66958, "name": "CZ-6A R/B", "group": "last-30-days", "lat": 78.84698441820575, "lon": 148.3809300734639, "alt_km": 826.2313881941345, "timestamp": "2025-12-11T20:41:13.849832+00:00", "meta": {"OBJECT_NAME": "CZ-6A R/B", "OBJECT_ID": "2025-287F", "EPOCH": "2025-12-11T15:02:50.182080", "MEAN_MOTION": 13.9491927, "ECCENTRICITY": 0.01072101, "INCLINATION": 86.5058, "RA_OF_ASC_NODE": 346.5238, "ARG_OF_PERICENTER": 105.4934, "MEAN_ANOMALY": 255.8109, "EPHEMERIS_TYPE": 0, "CLASSIFICATION_TYPE": "U", "NORAD_CAT_ID": 66958, "ELEMENT_SET_NO": 999, "REV_AT_EPOCH": 38, "BSTAR": 0.00030315333, "MEAN_MOTION_DOT": 4.46e-06, "MEAN_MOTION_DDOT": 0}, "tle": {"line1": "1 66958U 25287F   25345.62696970  .00000446  00000+0  30315-3 0  9990", "line2": "2 66958  86.5058 346.5238 0107210 105.4934 255.8109 13.94919270   382"}}, "geometry": {"type": "Point", "coordinates": [148.3809300734639, 78.84698441820575]}}, {"type": "Feature", "properties": {"norad_id": 66988, "name": "YAOGAN-47", "group": "last-30-days", "lat": -44.01475215949432, "lon": -136.35892210507097, "alt_km": 503.6930311589131, "timestamp": "2025-12-11T20:41:13.849842+00:00", "meta": {"OBJECT_NAME": "YAOGAN-47", "OBJECT_ID": "2025-289A", "EPOCH": "2025-12-11T14:58:29.248032", "MEAN_MOTION": 15.23120362, "ECCENTRICITY": 8.58e-05, "INCLINATION": 97.5268, "RA_OF_ASC_NODE": 50.7421, "ARG_OF_PERICENTER": 73.685, "MEAN_ANOMALY": 286.448, "EPHEMERIS_TYPE": 0, "CLASSIFICATION_TYPE": "U", "NORAD_CAT_ID": 66988, "ELEMENT_SET_NO": 999, "REV_AT_EPOCH": 37, "BSTAR": 0.0002492, "MEAN_MOTION_DOT": 5.809e-05, "MEAN_MOTION_DDOT": 0}, "tle": {"line1": "1 66988U 25289A   25345.62394963  .00005809  00000+0  24920-3 0  9995", "line2": "2 66988  97.5268  50.7421 0000858  73.6850 286.4480 15.23120362   372"}}, "geometry": {"type": "Point", "coordinates": [-136.35892210507097, -44.01475215949432]}}, {"type": "Feature", "properties": {"norad_id": 66989, "name": "CZ-4B R/B", "group": "last-30-days", "lat": -71.51437449901873, "lon": -152.15533525312213, "alt_km": 415.6506134356514, "timestamp": "2025-12-11T20:41:13.849852+00:00", "meta": {"OBJECT_NAME": "CZ-4B R/B", "OBJECT_ID": "2025-289B", "EPOCH": "2025-12-10T14:28:25.343040", "MEAN_MOTION": 15.66312523, "ECCENTRICITY": 0.01519273, "INCLINATION": 97.5247, "RA_OF_ASC_NODE": 49.7881, "ARG_OF_PERICENTER": 11.1182, "MEAN_ANOMALY": 349.3371, "EPHEMERIS_TYPE": 0, "CLASSIFICATION_TYPE": "U", "NORAD_CAT_ID": 66989, "ELEMENT_SET_NO": 999, "REV_AT_EPOCH": 23, "BSTAR": 0.00028721477, "MEAN_MOTION_DOT": 0.00055635, "MEAN_MOTION_DDOT": 3.061406e-06}, "tle": {"line1": "1 66989U 25289B   25344.60307110  .00055635  30614-5  28721-3 0  9996", "line2": "2 66989  97.5247  49.7881 0151927  11.1182 349.3371 15.66312523   239"}}, "geometry": {"type": "Point", "coordinates": [-152.15533525312213, -71.51437449901873]}}, {"type": "Feature", "properties": {"norad_id": 66990, "name": "TJS-22", "group": "last-30-days", "lat": 15.404256979285798, "lon": -10.55086294943963, "alt_km": 18562.44822419614, "timestamp": "2025-12-11T20:41:13.849864+00:00", "meta": {"OBJECT_NAME": "TJS-22", "OBJECT_ID": "2025-290A", "EPOCH": "2025-12-10T07:11:32.845344", "MEAN_MOTION": 2.15443148, "ECCENTRICITY": 0.6664534, "INCLINATION": 20.1261, "RA_OF_ASC_NODE": 301.1464, "ARG_OF_PERICENTER": 180.6877, "MEAN_ANOMALY": 177.6237, "EPHEMERIS_TYPE": 0, "CLASSIFICATION_TYPE": "U", "NORAD_CAT_ID": 66990, "ELEMENT_SET_NO": 999, "REV_AT_EPOCH": 3, "BSTAR": 0.079788243, "MEAN_MOTION_DOT": -3.8e-07, "MEAN_MOTION_DDOT": 0}, "tle": {"line1": "1 66990U 25290A   25344.29968571 -.00000038  00000+0  79788-1 0  9994", "line2": "2 66990  20.1261 301.1464 6664534 180.6877 177.6237  2.15443148    32"}}, "geometry": {"type": "Point", "coordinates": [-10.55086294943963, 15.404256979285798]}}]}